{"type": "FeatureCollection", "features": [ {"type": "Feature", "properties": {"norad_id": 34738, "name": "COSMOS 2251 DEB", "group": "cosmos-2251-debris", "lat": -14.314152271052658, "lon": 129.58544011897663, "alt_km": 728.2143171368725, "timestamp": "2025-12-17T19:34:08.432722+00:00", "meta": {"OBJECT_NAME": "COSMOS 2251 DEB", "OBJECT_ID": "1993-036ZG", "EPOCH": "2025-12-17T03:50:30.417792", "MEAN_MOTION": 14.46312811, "ECCENTRICITY": 0.00474454, "INCLINATION": 74.0151, "RA_OF_ASC_NODE": 135.0042, "ARG_OF_PERICENTER": 280.4334, "MEAN_ANOMALY": 253.6895, "EPHEMERIS_TYPE": 0, "CLASSIFICATION_TYPE": "U", "NORAD_CAT_ID": 34738, "ELEMENT_SET_NO": 999, "REV_AT_EPOCH": 87922, "BSTAR": 0.00028732942, "MEAN_MOTION_DOT": 1.016e-05, "MEAN_MOTION_DDOT": 0}, "tle": {"line1": "1 34738U 93036ZG  25351.16007428  .00001016  00000+0  28733-3 0  9993", "line2": "2 34738  74.0151 135.0042 0047445 280.4334 253.6895 14.46312811879225"}}, "geometry": {"type": "Point", "coordinates": [129.58544011897663, -14.314152271052658]}}, {"type": "Feature", "properties": {"norad_id": 34750, "name": "COSMOS 2251 DEB", "group": "cosmos-2251-debris", "lat": 53.283605454412424, "lon": -145.4532278004174, "alt_km": 681.8585903927506, "timestamp": "2025-12-17T19:34:08.432732+00:00", "meta": {"OBJECT_NAME": "COSMOS 2251 DEB", "OBJECT_ID": "1993-036ZU", "EPOCH": "2025-12-17T00:16:49.073376", "MEAN_MOTION": 14.61364393, "ECCENTRICITY": 0.00386526, "INCLINATION": 74.107, "RA_OF_ASC_NODE": 193.618, "ARG_OF_PERICENTER": 145.2516, "MEAN_ANOMALY": 5.2754, "EPHEMERIS_TYPE": 0, "CLASSIFICATION_TYPE": "U", "NORAD_CAT_ID": 34750, "ELEMENT_SET_NO": 999, "REV_AT_EPOCH": 88293, "BSTAR": 0.00079827854, "MEAN_MOTION_DOT": 3.961e-05, "MEAN_MOTION_DDOT": 0}, "tle": {"line1": "1 34750U 93036ZU  25351.01167909  .00003961  00000+0  79828-3 0  9994", "line2": "2 34750  74.1070 193.6180 0038652 145.2516   5.2754 14.61364393882939"}}, "geometry": {"type": "Point", "coordinates": [-145.4532278004174, 53.283605454412424]}}, {"type": "Feature", "properties": {"norad_id": 34752, "name": "COSMOS 2251 DEB", "group": "cosmos-2251-debris", "lat": -3.846910190909732, "lon": 171.37938680239392, "alt_km": 556.8417194997955, "timestamp": "2025-12-17T19:34:08.432742+00:00", "meta": {"OBJECT_NAME": "COSMOS 2251 DEB", "OBJECT_ID": "1993-036ZW", "EPOCH": "2025-12-17T01:08:57.190560", "MEAN_MOTION": 15.00027818, "ECCENTRICITY": 0.00475504, "INCLINATION": 74.013, "RA_OF_ASC_NODE": 351.8362, "ARG_OF_PERICENTER": 118.7658, "MEAN_ANOMALY": 241.8317, "EPHEMERIS_TYPE": 0, "CLASSIFICATION_TYPE": "U", "NORAD_CAT_ID": 34752, "ELEMENT_SET_NO": 999, "REV_AT_EPOCH": 89914, "BSTAR": 0.00071054935, "MEAN_MOTION_DOT": 9.028e-05, "MEAN_MOTION_DDOT": 0}, "tle": {"line1": "1 34752U 93036ZW  25351.04788415  .00009028  00000+0  71055-3 0  9994", "line2": "2 34752  74.0130 351.8362 0047550 118.7658 241.8317 15.00027818899142"}}, "geometry": {"type": "Point", "coordinates": [171.37938680239392, -3.846910190909732]}}, {"type": "Feature", "properties": {"norad_id": 34754, "name": "COSMOS 2251 DEB", "group": "cosmos-2251-debris", "lat": 27.75797092141623, "lon": 29.546196146020637, "alt_km": 776.5387152954345, "timestamp": "2025-12-17T19:34:08.432752+00:00", "meta": {"OBJECT_NAME": "COSMOS 2251 DEB", "OBJECT_ID": "1993-036ZY", "EPOCH": "2025-12-16T16:28:02.583264", "MEAN_MOTION": 14.40487403, "ECCENTRICITY": 0.00297202, "INCLINATION": 74.0298, "RA_OF_ASC_NODE": 220.3028, "ARG_OF_PERICENTER": 335.6347, "MEAN_ANOMALY": 81.7069, "EPHEMERIS_TYPE": 0, "CLASSIFICATION_TYPE": "U", "NORAD_CAT_ID": 34754, "ELEMENT_SET_NO": 999, "REV_AT_EPOCH": 88190, "BSTAR": 0.00019019849, "MEAN_MOTION_DOT": 5.81e-06, "MEAN_MOTION_DDOT": 0}, "tle": {"line1": "1 34754U 93036ZY  25350.68614101  .00000581  00000+0  19020-3 0  9994", "line2": "2 34754  74.0298 220.3028 0029720 335.6347  81.7069 14.40487403881905"}}, "geometry": {"type": "Point", "coordinates": [29.546196146020637, 27.75797092141623]}}, {"type": "Feature", "properties": {"norad_id": 34755, "name": "COSMOS 2251 DEB", "group": "cosmos-2251-debris", "lat": 57.808138598311146, "lon": -50.876862627481835, "alt_km": 1211.4015141634063, "timestamp": "2025-12-17T19:34:08.432762+00:00", "meta": {"OBJECT_NAME": "COSMOS 2251 DEB", "OBJECT_ID": "1993-036ZZ", "EPOCH": "2025-12-17T05:50:06.069984", "MEAN_MOTION": 13.50569003, "ECCENTRICITY": 0.04081843, "INCLINATION": 73.926, "RA_OF_ASC_NODE": 282.7855, "ARG_OF_PERICENTER": 301.8273, "MEAN_ANOMALY": 214.5982, "EPHEMERIS_TYPE": 0, "CLASSIFICATION_TYPE": "U", "NORAD_CAT_ID": 34755, "ELEMENT_SET_NO": 999, "REV_AT_EPOCH": 82584, "BSTAR": 0.00078980416, "MEAN_MOTION_DOT": 8.28e-06, "MEAN_MOTION_DDOT": 0}, "tle": {"line1": "1 34755U 93036ZZ  25351.24312581  .00000828  00000+0  78980-3 0  9999", "line2": "2 34755  73.9260 282.7855 0408184 301.8273 214.5982 13.50569003825849"}}, "geometry": {"type": "Point", "coordinates": [-50.876862627481835, 57.808138598311146]}}, {"type": "Feature", "properties": {"norad_id": 34756, "name": "COSMOS 2251 DEB", "group": "cosmos-2251-debris", "lat": -73.16454853691648, "lon": -12.53204963730272, "alt_km": 905.5911829879906, "timestamp": "2025-12-17T19:34:08.432772+00:00", "meta": {"OBJECT_NAME": "COSMOS 2251 DEB", "OBJECT_ID": "1993-036AAA", "EPOCH": "2025-12-16T08:53:18.201984", "MEAN_MOTION": 13.67251835, "ECCENTRICITY": 0.03452801, "INCLINATION": 74.003, "RA_OF_ASC_NODE": 98.3991, "ARG_OF_PERICENTER": 333.4281, "MEAN_ANOMALY": 24.9484, "EPHEMERIS_TYPE": 0, "CLASSIFICATION_TYPE": "U", "NORAD_CAT_ID": 34756, "ELEMENT_SET_NO": 999, "REV_AT_EPOCH": 83471, "BSTAR": 0.00093292845, "MEAN_MOTION_DOT": 1.159e-05, "MEAN_MOTION_DDOT": 0}, "tle": {"line1": "1 34756U 93036AAA 25350.37034956  .00001159  00000+0  93293-3 0  9992", "line2": "2 34756  74.0030  98.3991 0345280 333.4281  24.9484 13.67251835834711"}}, "geometry": {"type": "Point", "coordinates": [-12.53204963730272, -73.16454853691648]}}, {"type": "Feature", "properties": {"norad_id": 34758, "name": "COSMOS 2251 DEB", "group": "cosmos-2251-debris", "lat": -33.352194755187924, "lon": 122.13608014481241, "alt_km": 1314.888151935158, "timestamp": "2025-12-17T19:34:08.432782+00:00", "meta": {"OBJECT_NAME": "COSMOS 2251 DEB", "OBJECT_ID": "1993-036AAC", "EPOCH": "2025-12-17T06:09:51.620544", "MEAN_MOTION": 13.58084731, "ECCENTRICITY": 0.03816404, "INCLINATION": 74.1075, "RA_OF_ASC_NODE": 292.2273, "ARG_OF_PERICENTER": 54.8808, "MEAN_ANOMALY": 308.7451, "EPHEMERIS_TYPE": 0, "CLASSIFICATION_TYPE": "U", "NORAD_CAT_ID": 34758, "ELEMENT_SET_NO": 999, "REV_AT_EPOCH": 82971, "BSTAR": 0.001447828, "MEAN_MOTION_DOT": 1.667e-05, "MEAN_MOTION_DDOT": 0}, "tle": {"line1": "1 34758U 93036AAC 25351.25684746  .00001667  00000+0  14478-2 0  9991", "line2": "2 34758  74.1075 292.2273 0381640  54.8808 308.7451 13.58084731829710"}}, "geometry": {"type": "Point", "coordinates": [122.13608014481241, -33.352194755187924]}}, {"type": "Feature", "properties": {"norad_id": 34760, "name": "COSMOS 2251 DEB", "group": "cosmos-2251-debris", "lat": 31.806071701652197, "lon": 103.09642981556615, "alt_km": 891.0911956716, "timestamp": "2025-12-17T19:34:08.432792+00:00", "meta": {"OBJECT_NAME": "COSMOS 2251 DEB", "OBJECT_ID": "1993-036AAE", "EPOCH": "2025-12-15T15:17:34.568160", "MEAN_MOTION": 14.19579445, "ECCENTRICITY": 0.00969523, "INCLINATION": 74.0638, "RA_OF_ASC_NODE": 297.1884, "ARG_OF_PERICENTER": 348.6722, "MEAN_ANOMALY": 190.5489, "EPHEMERIS_TYPE": 0, "CLASSIFICATION_TYPE": "U", "NORAD_CAT_ID": 34760, "ELEMENT_SET_NO": 999, "REV_AT_EPOCH": 86729, "BSTAR": 0.00062937679, "MEAN_MOTION_DOT": 1.367e-05, "MEAN_MOTION_DDOT": 0}, "tle": {"line1": "1 34760U 93036AAE 25349.63720565  .00001367  00000+0  62938-3 0  9995", "line2": "2 34760  74.0638 297.1884 0096952 348.6722 190.5489 14.19579445867299"}}, "geometry": {"type": "Point", "coordinates": [103.09642981556615, 31.806071701652197]}}, {"type": "Feature", "properties": {"norad_id": 34761, "name": "COSMOS 2251 DEB", "group": "cosmos-2251-debris", "lat": 41.6801184077938, "lon": 8.210721298205126, "alt_km": 736.2538812442799, "timestamp": "2025-12-17T19:34:08.432801+00:00", "meta": {"OBJECT_NAME": "COSMOS 2251 DEB", "OBJECT_ID": "1993-036AAF", "EPOCH": "2025-12-16T18:19:26.421600", "MEAN_MOTION": 14.38063879, "ECCENTRICITY": 0.00366118, "INCLINATION": 74.0292, "RA_OF_ASC_NODE": 355.3761, "ARG_OF_PERICENTER": 28.2652, "MEAN_ANOMALY": 332.0478, "EPHEMERIS_TYPE": 0, "CLASSIFICATION_TYPE": "U", "NORAD_CAT_ID": 34761, "ELEMENT_SET_NO": 999, "REV_AT_EPOCH": 87707, "BSTAR": 0.00049629048, "MEAN_MOTION_DOT": 1.489e-05, "MEAN_MOTION_DDOT": 0}, "tle": {"line1": "1 34761U 93036AAF 25350.76350025  .00001489  00000+0  49629-3 0  9999", "line2": "2 34761  74.0292 355.3761 0036611  28.2652 332.0478 14.38063879877074"}}, "geometry": {"type": "Point", "coordinates": [8.210721298205126, 41.6801184077938]}}, {"type": "Feature", "properties": {"norad_id": 34784, "name": "COSMOS 2251 DEB", "group": "cosmos-2251-debris", "lat": -29.31826548246968, "lon": -54.627784102941035, "alt_km": 727.1541634191553, "timestamp": "2025-12-17T19:34:08.432811+00:00", "meta": {"OBJECT_NAME": "COSMOS 2251 DEB", "OBJECT_ID": "1993-036AAM", "EPOCH": "2025-12-16T22:20:34.488672", "MEAN_MOTION": 14.60798995, "ECCENTRICITY": 0.00492666, "INCLINATION": 74.0072, "RA_OF_ASC_NODE": 316.333, "ARG_OF_PERICENTER": 124.4383, "MEAN_ANOMALY": 236.1454, "EPHEMERIS_TYPE": 0, "CLASSIFICATION_TYPE": "U", "NORAD_CAT_ID": 34784, "ELEMENT_SET_NO": 999, "REV_AT_EPOCH": 88596, "BSTAR": 0.00037254582, "MEAN_MOTION_DOT": 1.82e-05, "MEAN_MOTION_DDOT": 0}, "tle": {"line1": "1 34784U 93036AAM 25350.93095473  .00001820  00000+0  37255-3 0  9997", "line2": "2 34784  74.0072 316.3330 0049266 124.4383 236.1454 14.60798995885968"}}, "geometry": {"type": "Point", "coordinates": [-54.627784102941035, -29.31826548246968]}}]}